STARLINK-32447          
1 61261U 24175U   26068.62161361  .00000236  00000+0  20079-4 0  9995
2 61261  53.1599 194.3175 0000963  82.6772 277.4338 15.30189239 81442
GLOBAL-34               
1 68098U 26043A   26068.47466435  .00014018  00000+0  45822-3 0  9994
2 68098  42.0215  76.7399 0006884 289.2632  70.7460 15.31488019   538
